[{"OBJECT_NAME":"AURA","OBJECT_ID":"2004-026A","EPOCH":"2026-03-09T21:39:31.960800","MEAN_MOTION":14.61149986,"ECCENTRICITY":0.0001042,"INCLINATION":98.3311,"RA_OF_ASC_NODE":24.6066,"ARG_OF_PERICENTER":85.0806,"MEAN_ANOMALY":275.0513,"EPHEMERIS_TYPE":0,"CLASSIFICATION_TYPE":"U","NORAD_CAT_ID":28376,"ELEMENT_SET_NO":999,"REV_AT_EPOCH":15171,"BSTAR":0.00028939986,"MEAN_MOTION_DOT":1.376e-5,"MEAN_MOTION_DDOT":0},{"OBJECT_NAME":"BEIJING 1","OBJECT_ID":"2005-043A","EPOCH":"2026-03-09T22:42:03.803040","MEAN_MOTION":14.63461381,"ECCENTRICITY":0.00135876,"INCLINATION":98.2733,"RA_OF_ASC_NODE":201.7002,"ARG_OF_PERICENTER":229.3991,"MEAN_ANOMALY":130.6029,"EPHEMERIS_TYPE":0,"CLASSIFICATION_TYPE":"U","NORAD_CAT_ID":28890,"ELEMENT_SET_NO":999,"REV_AT_EPOCH":8613,"BSTAR":0.0001420019,"MEAN_MOTION_DOT":6.87e-6,"MEAN_MOTION_DDOT":0}]
